PROBA-1                 
1 26958U 01049B   26115.82814278  .00002368  00000+0  15650-3 0  9997
2 26958  97.9622 122.5367 0054052 300.8739  58.7178 15.07292716335736
CUTE-1 (CO-55)          
1 27844U 03031E   26114.99932729  .00000245  00000+0  12496-3 0  9991
2 27844  98.6757 124.2245 0009205 347.5450  12.5500 14.24301171184104
CUBESAT XI-IV (CO-57)   
1 27848U 03031J   26115.45318900  .00000236  00000+0  12291-3 0  9999
2 27848  98.6791 124.4281 0009461   4.9021 355.2248 14.23591430183877
APRIZESAT 4             
1 35684U 09041D   26115.72634659  .00000758  00000+0  96939-4 0  9996
2 35684  98.1424 190.0017 0044421 130.7481 229.7602 14.83797080903583
APRIZESAT 3             
1 35686U 09041F   26115.39789321  .00001064  00000+0  97320-4 0  9994
2 35686  98.1994 266.1202 0060838 240.9247 118.5872 14.96056044908482
PROBA-2                 
1 36037U 09059B   26115.76434153  .00000171  00000+0  50301-4 0  9991
2 36037  98.2451 299.8446 0014570  83.6741 276.6115 14.54839118873907
APRIZESAT 5             
1 37792U 11044E   26115.78187304  .00000735  00000+0  10021-3 0  9992
2 37792  98.2435  47.3492 0052451 170.0363 190.1902 14.80968305791033
APRIZESAT 6             
1 37793U 11044F   26115.70781365  .00000586  00000+0  90313-4 0  9999
2 37793  98.2390  25.1312 0041834 253.4905 170.0029 14.76842626789407
PROBA-V                 
1 39159U 13021A   26115.82708120  .00000084  00000+0  55117-4 0  9991
2 39159  98.3560  97.0280 0003033 293.9562  66.1300 14.23585468673661
APRIZESAT 7             
1 39416U 13066A   26115.82542281  .00001440  00000+0  14799-3 0  9997
2 39416  97.7667  69.8157 0036661  27.1720 333.1407 14.91431282673422
APRIZESAT 8             
1 39425U 13066K   26115.81026667  .00000952  00000+0  10889-3 0  9994
2 39425  97.8182  64.0265 0047519  97.9892 262.6720 14.87534638671887
BUGSAT-1 (TITA)         
1 40014U 14033E   26115.80274969  .00005132  00000+0  27582-3 0  9997
2 40014  98.0396 205.3170 0028230   2.4975 357.6391 15.15046786647909
SAUDISAT 4              
1 40016U 14033G   26115.83950340  .00000765  00000+0  10774-3 0  9998
2 40016  97.7510 263.8078 0043579 242.8791 116.7974 14.79464941638334
APRIZESAT 9             
1 40018U 14033J   26115.80790406  .00000538  00000+0  86519-4 0  9991
2 40018  97.8979 250.3108 0066362   9.9409 350.3095 14.74154326635845
APRIZESAT 10            
1 40019U 14033K   26115.81306626  .00000514  00000+0  88190-4 0  9991
2 40019  97.9569 243.9661 0080210  81.2716 279.7565 14.70832944634554
TECHDEMOSAT-1 (TDS-1)   
1 40076U 14037H   26115.84138745  .00010914  00000+0  63123-3 0  9999
2 40076  98.3812 102.9079 0008115  87.0136 273.2021 15.12446050640317
TECHNOSAT               
1 42829U 17042E   26115.85009525  .00004171  00000+0  30020-3 0  9998
2 42829  97.4231 275.5291 0016426 272.5299  87.4047 15.04631342478838
